[{"OBJECT_NAME":"ZHUHAI-1 OVS-02","OBJECT_ID":"2018-040B","EPOCH":"2026-03-09T23:28:43.397184","MEAN_MOTION":15.23701521,"ECCENTRICITY":0.00020716,"INCLINATION":97.0496,"RA_OF_ASC_NODE":92.136,"ARG_OF_PERICENTER":226.172,"MEAN_ANOMALY":133.9347,"EPHEMERIS_TYPE":0,"CLASSIFICATION_TYPE":"U","NORAD_CAT_ID":43440,"ELEMENT_SET_NO":999,"REV_AT_EPOCH":43760,"BSTAR":0.0003025193,"MEAN_MOTION_DOT":7.199e-5,"MEAN_MOTION_DDOT":0},{"OBJECT_NAME":"STARLINK-2273","OBJECT_ID":"2021-024S","EPOCH":"2026-03-10T00:00:02.999808","MEAN_MOTION":15.21044249,"ECCENTRICITY":7.23e-5,"INCLINATION":53.1152,"RA_OF_ASC_NODE":294.6507,"ARG_OF_PERICENTER":119.4489,"MEAN_ANOMALY":235.3564,"EPHEMERIS_TYPE":0,"CLASSIFICATION_TYPE":"U","NORAD_CAT_ID":47993,"ELEMENT_SET_NO":999,"REV_AT_EPOCH":569,"BSTAR":0.0044234454,"MEAN_MOTION_DOT":0.0010051,"MEAN_MOTION_DDOT":0}]
